start=new Date('2022-07-21T00:00:00.000Z').valueOf();
sats=[{"LAUNCH_DATE":"2021-11-13","SEMIMAJOR_AXIS":"6917.834","MEAN_MOTION_DOT":"0.00003400","OBJECT_TYPE":"PAYLOAD","PERIAPSIS":"538.314","BSTAR":"0.00023152000000","ARG_OF_PERICENTER":"66.3520","RCS_SIZE":"LARGE","OBJECT_ID":"2021-104BA","EPOCH":"2022-07-20T19:41:04.184448","PERIOD":"95.437","ECCENTRICITY":"0.00020020","REV_AT_EPOCH":"3831","TLE_LINE1":"1 49456U 21104BA  22201.82018732  .00003400  00000-0  23152-3 0  9997","CLASSIFICATION_TYPE":"U","SITE":"AFETR","INCLINATION":"53.2177","COUNTRY_CODE":"US","APOAPSIS":"541.084","OBJECT_NAME":"STARLINK-3124","RA_OF_ASC_NODE":"60.1714","MEAN_ELEMENT_THEORY":"SGP4","MEAN_ANOMALY":"293.7682","ELEMENT_SET_NO":"999","FILE":"3518363","EPHEMERIS_TYPE":"0","NORAD_CAT_ID":"49456","DECAY_DATE":null,"MEAN_MOTION":"15.08855096","MEAN_MOTION_DDOT":"0.0000000000000","TIME_SYSTEM":"UTC","REF_FRAME":"TEME","GP_ID":"208535589","CENTER_NAME":"EARTH","TLE_LINE2":"2 49456  53.2177  60.1714 0002002  66.3520 293.7682 15.08855096 38319"},{"OBJECT_ID":"2021-104BB","EPOCH":"2022-07-20T21:00:34.321536","ECCENTRICITY":"0.00020400","PERIOD":"95.437","REV_AT_EPOCH":"3832","TLE_LINE1":"1 49457U 21104BB  22201.87539724  .00001912  00000-0  13820-3 0  9999","CLASSIFICATION_TYPE":"U","SITE":"AFETR","INCLINATION":"53.2190","COUNTRY_CODE":"US","LAUNCH_DATE":"2021-11-13","SEMIMAJOR_AXIS":"6917.872","PERIAPSIS":"538.325","OBJECT_TYPE":"PAYLOAD","BSTAR":"0.00013820000000","MEAN_MOTION_DOT":"0.00001912","ARG_OF_PERICENTER":"71.5102","RCS_SIZE":"LARGE","DECAY_DATE":null,"MEAN_MOTION":"15.08842855","MEAN_MOTION_DDOT":"0.0000000000000","REF_FRAME":"TEME","TIME_SYSTEM":"UTC","GP_ID":"208535339","CENTER_NAME":"EARTH","TLE_LINE2":"2 49457  53.2190  59.9134 0002040  71.5102 288.6112 15.08842855 38324","APOAPSIS":"541.148","OBJECT_NAME":"STARLINK-3132","RA_OF_ASC_NODE":"59.9134","MEAN_ELEMENT_THEORY":"SGP4","ELEMENT_SET_NO":"999","MEAN_ANOMALY":"288.6112","FILE":"3518363","EPHEMERIS_TYPE":"0","NORAD_CAT_ID":"49457"},{"ARG_OF_PERICENTER":"58.6338","MEAN_MOTION_DOT":"0.00001299","OBJECT_TYPE":"PAYLOAD","PERIAPSIS":"537.848","BSTAR":"0.00009971900000","RCS_SIZE":"LARGE","SEMIMAJOR_AXIS":"6917.881","LAUNCH_DATE":"2021-11-13","COUNTRY_CODE":"US","INCLINATION":"53.2198","PERIOD":"95.438","ECCENTRICITY":"0.00027440","OBJECT_ID":"2021-104BC","EPOCH":"2022-07-20T19:35:46.632480","CLASSIFICATION_TYPE":"U","SITE":"AFETR","TLE_LINE1":"1 49458U 21104BC  22201.81651195  .00001299  00000-0  99719-4 0  9991","REV_AT_EPOCH":"3831","FILE":"3518363","MEAN_ANOMALY":"301.4923","ELEMENT_SET_NO":"999","MEAN_ELEMENT_THEORY":"SGP4","NORAD_CAT_ID":"49458","EPHEMERIS_TYPE":"0","APOAPSIS":"541.644","RA_OF_ASC_NODE":"60.1760","OBJECT_NAME":"STARLINK-3156","CENTER_NAME":"EARTH","TLE_LINE2":"2 49458  53.2198  60.1760 0002744  58.6338 301.4923 15.08839742 38314","GP_ID":"208536591","TIME_SYSTEM":"UTC","REF_FRAME":"TEME","MEAN_MOTION_DDOT":"0.0000000000000","MEAN_MOTION":"15.08839742","DECAY_DATE":null},{"FILE":"3518363","MEAN_ELEMENT_THEORY":"SGP4","ELEMENT_SET_NO":"999","MEAN_ANOMALY":"287.1448","NORAD_CAT_ID":"49459","EPHEMERIS_TYPE":"0","APOAPSIS":"541.479","RA_OF_ASC_NODE":"59.9353","OBJECT_NAME":"STARLINK-3141","TLE_LINE2":"2 49459  53.2193  59.9353 0002494  72.9817 287.1448 15.08837165 38327","CENTER_NAME":"EARTH","GP_ID":"208536341","MEAN_MOTION_DDOT":"0.0000000000000","TIME_SYSTEM":"UTC","REF_FRAME":"TEME","DECAY_DATE":null,"MEAN_MOTION":"15.08837165","ARG_OF_PERICENTER":"72.9817","BSTAR":"0.00004341100000","OBJECT_TYPE":"PAYLOAD","PERIAPSIS":"538.029","MEAN_MOTION_DOT":"0.00000402","RCS_SIZE":"LARGE","LAUNCH_DATE":"2021-11-13","SEMIMAJOR_AXIS":"6917.889","COUNTRY_CODE":"US","INCLINATION":"53.2193","ECCENTRICITY":"0.00024940","PERIOD":"95.438","OBJECT_ID":"2021-104BD","EPOCH":"2022-07-20T20:55:16.660704","TLE_LINE1":"1 49459U 21104BD  22201.87172061  .00000402  00000-0  43411-4 0  9991","CLASSIFICATION_TYPE":"U","SITE":"AFETR","REV_AT_EPOCH":"3832"},{"RCS_SIZE":"LARGE","ARG_OF_PERICENTER":"70.1603","BSTAR":"0.00061772000000","OBJECT_TYPE":"PAYLOAD","PERIAPSIS":"537.995","MEAN_MOTION_DOT":"0.00009562","SEMIMAJOR_AXIS":"6917.816","LAUNCH_DATE":"2021-11-13","COUNTRY_CODE":"US","INCLINATION":"53.2160","CLASSIFICATION_TYPE":"U","SITE":"AFETR","TLE_LINE1":"1 49460U 21104BE  22201.86804542  .00009562  00000-0  61772-3 0  9993","REV_AT_EPOCH":"3831","PERIOD":"95.436","ECCENTRICITY":"0.00024380","EPOCH":"2022-07-20T20:49:59.124288","OBJECT_ID":"2021-104BE","NORAD_CAT_ID":"49460","EPHEMERIS_TYPE":"0","FILE":"3518363","ELEMENT_SET_NO":"999","MEAN_ANOMALY":"289.9652","MEAN_ELEMENT_THEORY":"SGP4","RA_OF_ASC_NODE":"59.9621","OBJECT_NAME":"STARLINK-3140","APOAPSIS":"541.368","TLE_LINE2":"2 49460  53.2160  59.9621 0002438  70.1603 289.9652 15.08861034 38310","CENTER_NAME":"EARTH","GP_ID":"208535089","TIME_SYSTEM":"UTC","REF_FRAME":"TEME","MEAN_MOTION_DDOT":"0.0000000000000","MEAN_MOTION":"15.08861034","DECAY_DATE":null},{"GP_ID":"208512199","CENTER_NAME":"EARTH","TLE_LINE2":"2 49724  53.2189 350.3219 0001626  51.5143 308.5995 15.08830293 36178","DECAY_DATE":null,"MEAN_MOTION":"15.08830293","REF_FRAME":"TEME","TIME_SYSTEM":"UTC","MEAN_MOTION_DDOT":"0.0000000000000","ELEMENT_SET_NO":"999","MEAN_ANOMALY":"308.5995","MEAN_ELEMENT_THEORY":"SGP4","FILE":"3518326","EPHEMERIS_TYPE":"0","NORAD_CAT_ID":"49724","APOAPSIS":"540.900","OBJECT_NAME":"STARLINK-3219","RA_OF_ASC_NODE":"350.3219","INCLINATION":"53.2189","COUNTRY_CODE":"US","OBJECT_ID":"2021-115A","EPOCH":"2022-07-20T18:48:09.250560","ECCENTRICITY":"0.00016260","PERIOD":"95.438","REV_AT_EPOCH":"3617","CLASSIFICATION_TYPE":"U","SITE":"AFETR","TLE_LINE1":"1 49724U 21115A   22201.78344040  .00000675  00000-0  60492-4 0  9996","OBJECT_TYPE":"PAYLOAD","PERIAPSIS":"538.650","MEAN_MOTION_DOT":"0.00000675","BSTAR":"0.00006049200000","ARG_OF_PERICENTER":"51.5143","RCS_SIZE":"LARGE","SEMIMAJOR_AXIS":"6917.910","LAUNCH_DATE":"2021-12-02"},{"APOAPSIS":"540.560","OBJECT_NAME":"STARLINK-3218","RA_OF_ASC_NODE":"351.0744","MEAN_ELEMENT_THEORY":"SGP4","ELEMENT_SET_NO":"999","MEAN_ANOMALY":"273.7814","FILE":"3518363","EPHEMERIS_TYPE":"0","NORAD_CAT_ID":"49725","DECAY_DATE":null,"MEAN_MOTION":"15.08848867","MEAN_MOTION_DDOT":"0.0000000000000","TIME_SYSTEM":"UTC","REF_FRAME":"TEME","GP_ID":"208536108","TLE_LINE2":"2 49725  53.2193 351.0744 0001217  86.3317 273.7814 15.08848867 35044","CENTER_NAME":"EARTH","LAUNCH_DATE":"2021-12-02","SEMIMAJOR_AXIS":"6917.853","OBJECT_TYPE":"PAYLOAD","PERIAPSIS":"538.876","BSTAR":"0.00012473000000","MEAN_MOTION_DOT":"0.00001698","ARG_OF_PERICENTER":"86.3317","RCS_SIZE":"LARGE","OBJECT_ID":"2021-115B","EPOCH":"2022-07-20T14:49:40.101600","PERIOD":"95.437","ECCENTRICITY":"0.00012170","REV_AT_EPOCH":"3504","TLE_LINE1":"1 49725U 21115B   22201.61782525  .00001698  00000-0  12473-3 0  9994","CLASSIFICATION_TYPE":"U","SITE":"AFETR","INCLINATION":"53.2193","COUNTRY_CODE":"US"},{"GP_ID":"208512200","CENTER_NAME":"EARTH","TLE_LINE2":"2 49726  53.2178   0.0633 0001561  73.4210 286.6953 15.08852991 36048","MEAN_MOTION":"15.08852991","DECAY_DATE":null,"REF_FRAME":"TEME","TIME_SYSTEM":"UTC","MEAN_MOTION_DDOT":"0.0000000000000","MEAN_ANOMALY":"286.6953","ELEMENT_SET_NO":"999","MEAN_ELEMENT_THEORY":"SGP4","FILE":"3518326","EPHEMERIS_TYPE":"0","NORAD_CAT_ID":"49726","APOAPSIS":"540.786","OBJECT_NAME":"STARLINK-3237","RA_OF_ASC_NODE":"0.0633","INCLINATION":"53.2178","COUNTRY_CODE":"US","OBJECT_ID":"2021-115C","EPOCH":"2022-07-20T20:15:31.139424","PERIOD":"95.437","ECCENTRICITY":"0.00015610","REV_AT_EPOCH":"3604","SITE":"AFETR","CLASSIFICATION_TYPE":"U","TLE_LINE1":"1 49726U 21115C   22201.84411041  .00003479  00000-0  23648-3 0  9997","OBJECT_TYPE":"PAYLOAD","BSTAR":"0.00023648000000","PERIAPSIS":"538.626","MEAN_MOTION_DOT":"0.00003479","ARG_OF_PERICENTER":"73.4210","RCS_SIZE":"LARGE","SEMIMAJOR_AXIS":"6917.841","LAUNCH_DATE":"2021-12-02"},{"MEAN_ELEMENT_THEORY":"SGP4","MEAN_ANOMALY":"300.6940","ELEMENT_SET_NO":"999","FILE":"3518363","EPHEMERIS_TYPE":"0","NORAD_CAT_ID":"49727","APOAPSIS":"540.611","OBJECT_NAME":"STARLINK-3242","RA_OF_ASC_NODE":"0.6445","GP_ID":"208535607","CENTER_NAME":"EARTH","TLE_LINE2":"2 49727  53.2174   0.6445 0001304  59.4181 300.6940 15.08851932 34919","DECAY_DATE":null,"MEAN_MOTION":"15.08851932","MEAN_MOTION_DDOT":"0.0000000000000","TIME_SYSTEM":"UTC","REF_FRAME":"TEME","OBJECT_TYPE":"PAYLOAD","MEAN_MOTION_DOT":"0.00002453","PERIAPSIS":"538.807","BSTAR":"0.00017207000000","ARG_OF_PERICENTER":"59.4181","RCS_SIZE":"LARGE","LAUNCH_DATE":"2021-12-02","SEMIMAJOR_AXIS":"6917.844","INCLINATION":"53.2174","COUNTRY_CODE":"US","EPOCH":"2022-07-20T17:10:03.153792","OBJECT_ID":"2021-115D","ECCENTRICITY":"0.00013040","PERIOD":"95.437","REV_AT_EPOCH":"3491","TLE_LINE1":"1 49727U 21115D   22201.71531428  .00002453  00000-0  17207-3 0  9991","SITE":"AFETR","CLASSIFICATION_TYPE":"U"},{"DECAY_DATE":null,"MEAN_MOTION":"15.08844407","TIME_SYSTEM":"UTC","REF_FRAME":"TEME","MEAN_MOTION_DDOT":"0.0000000000000","GP_ID":"208508693","TLE_LINE2":"2 49728  53.2167   0.0219 0001546  61.9789 298.1359 15.08844407 36045","CENTER_NAME":"EARTH","APOAPSIS":"540.801","OBJECT_NAME":"STARLINK-3240","RA_OF_ASC_NODE":"0.0219","MEAN_ANOMALY":"298.1359","ELEMENT_SET_NO":"999","MEAN_ELEMENT_THEORY":"SGP4","FILE":"3518191","EPHEMERIS_TYPE":"0","NORAD_CAT_ID":"49728","EPOCH":"2022-07-20T20:26:07.567872","OBJECT_ID":"2021-115E","ECCENTRICITY":"0.00015460","PERIOD":"95.437","REV_AT_EPOCH":"3604","CLASSIFICATION_TYPE":"U","SITE":"AFETR","TLE_LINE1":"1 49728U 21115E   22201.85147648  .00002818  00000-0  19503-3 0  9990","INCLINATION":"53.2167","COUNTRY_CODE":"US","SEMIMAJOR_AXIS":"6917.867","LAUNCH_DATE":"2021-12-02","OBJECT_TYPE":"PAYLOAD","MEAN_MOTION_DOT":"0.00002818","PERIAPSIS":"538.662","BSTAR":"0.00019503000000","ARG_OF_PERICENTER":"61.9789","RCS_SIZE":"LARGE"}];
